{
    "links": {
        "self": "http://www.neowsapp.com/rest/v1/neo/3892198?api_key=iIulBulltgU6a56xZRHN4H3l9WmuAYTsLGpBGhQ2"
    },
    "id": "3892198",
    "neo_reference_id": "3892198",
    "name": "(2019 VJ)",
    "designation": "2019 VJ",
    "nasa_jpl_url": "http://ssd.jpl.nasa.gov/sbdb.cgi?sstr=3892198",
    "absolute_magnitude_h": 24.7,
    "estimated_diameter": {
        "kilometers": {
            "estimated_diameter_min": 0.0305179233,
            "estimated_diameter_max": 0.0682401509
        },
        "meters": {
            "estimated_diameter_min": 30.5179232594,
            "estimated_diameter_max": 68.2401509401
        },
        "miles": {
            "estimated_diameter_min": 0.0189629525,
            "estimated_diameter_max": 0.0424024508
        },
        "feet": {
            "estimated_diameter_min": 100.1244233463,
            "estimated_diameter_max": 223.8850168104
        }
    },
    "is_potentially_hazardous_asteroid": false,
    "close_approach_data": [
        {
            "close_approach_date": "2019-05-29",
            "close_approach_date_full": "2019-May-29 11:35",
            "epoch_date_close_approach": 1559129700000,
            "relative_velocity": {
                "kilometers_per_second": "6.7507179192",
                "kilometers_per_hour": "24302.5845091532",
                "miles_per_hour": "15100.6809134791"
            },
            "miss_distance": {
                "astronomical": "0.4234824607",
                "lunar": "164.7346772123",
                "kilometers": "63352074.103078709",
                "miles": "39365153.4612318242"
            },
            "orbiting_body": "Earth"
        },
        {
            "close_approach_date": "2019-10-23",
            "close_approach_date_full": "2019-Oct-23 05:45",
            "epoch_date_close_approach": 1571809500000,
            "relative_velocity": {
                "kilometers_per_second": "10.5290052245",
                "kilometers_per_hour": "37904.4188080463",
                "miles_per_hour": "23552.3317865885"
            },
            "miss_distance": {
                "astronomical": "0.0746962182",
                "lunar": "29.0568288798",
                "kilometers": "11174395.139775234",
                "miles": "6943447.1679328692"
            },
            "orbiting_body": "Earth"
        }
    ],
    "orbital_data": {
        "orbit_id": "2",
        "orbit_determination_date": "2019-11-12 04:55:57",
        "first_observation_date": "2019-11-01",
        "last_observation_date": "2019-11-03",
        "data_arc_in_days": 2,
        "observations_used": 14,
        "orbit_uncertainty": "8",
        "minimum_orbit_intersection": ".0736048",
        "jupiter_tisserand_invariant": "4.560",
        "epoch_osculation": "2458789.5",
        "eccentricity": ".3647261587222613",
        "semi_major_axis": "1.447783760428216",
        "inclination": "10.58657247259086",
        "ascending_node_longitude": "47.68668659380857",
        "orbital_period": "636.2883595949154",
        "perihelion_distance": ".9197391508267626",
        "perihelion_argument": "286.2585803395607",
        "aphelion_distance": "1.97582837002967",
        "perihelion_time": "2458734.570781829851",
        "mean_anomaly": "31.07791969327056",
        "mean_motion": ".5657812131424018",
        "equinox": "J2000",
        "orbit_class": {
            "orbit_class_type": "APO",
            "orbit_class_description": "Near-Earth asteroid orbits which cross the Earth’s orbit similar to that of 1862 Apollo",
            "orbit_class_range": "a (semi-major axis) > 1.0 AU; q (perihelion) < 1.017 AU"
        }
    },
    "is_sentry_object": false
}